    CK21O030  2022 04 21.0462  0.287303  1.000132  299.9867  189.0263   56.7749  20211111  10.5  4.0  C/2021 O3 (PANSTARRS)                                    MPEC 2021-UA9
    CK21P010  2022 06  1.8101  4.374642  0.999830   40.3786  359.6723   51.6269  20211111  11.0  4.0  C/2021 P1 (PANSTARRS)                                    MPEC 2021-U31
    CK21P020  2023 01 21.8789  5.071670  0.997857   76.4990   31.9949  150.0204  20211111   9.0  4.0  C/2021 P2 (PANSTARRS)                                    MPEC 2021-UA9
    PK21P030  2021 05 30.8209  2.915859  0.340212  334.1855  358.2375   27.1555  20211111  14.0  4.0  P/2021 P3 (PANSTARRS)                                    MPEC 2021-UA9
    CK21P040  2022 07 30.4027  1.080556  0.996478  175.8230  348.0963   56.3118  20211111   9.5  4.0  C/2021 P4 (ATLAS)                                        MPEC 2021-UA9
    CK21Q030  2022 01 26.1711  5.204969  0.930272  114.0997  307.9043   77.7776  20211111   8.0  4.0  C/2021 Q3 (ATLAS)                                        MPEC 2021-UA9
    CK21Q040  2023 06  9.0091  7.567138  1.003448  146.8989  183.3318   71.4739  20211111   6.0  4.0  C/2021 Q4 (Fuls)                                         MPEC 2021-UA9
    PK21Q050  2021 08 30.4260  1.234474  0.624124  180.8883  239.7728   10.7340  20211111  15.0  4.0  P/2021 Q5 (ATLAS)                                        MPEC 2021-UA9
    CK21Q060  2024 03 21.4346  8.715219  0.998959  140.8096  133.5419  161.8469  20211111   6.0  4.0  C/2021 Q6 (PANSTARRS)                                    MPEC 2021-UA9
    PK21R010  2021 12 17.3453  4.885770  0.420510  220.2881  143.4088    5.5213  20211111  11.0  4.0  P/2021 R1 (PANSTARRS)                                    MPEC 2021-U31
    CK21R020  2021 12 25.3278  7.312022  0.997950   32.3227   16.2847  134.4724  20211111   7.5  4.0  C/2021 R2 (PANSTARRS)                                    MPEC 2021-U31
    PK21R030  2021 05 26.9866  2.525142  0.331813    2.9747  304.2436   19.9284  20211111  16.0  4.0  P/2021 R3 (PANSTARRS)                                    MPEC 2021-S45
    PK21R040  2021 10 13.9502  2.326125  0.586113   56.6323  321.2592   21.0418  20211111  16.0  4.0  P/2021 R4 (Wierzchos)                                    MPEC 2021-U31
    PK21R050  2022 01 12.0237  3.322688  0.307422  167.3446  219.9621    7.8527  20211111  12.0  4.0  P/2021 R5 (Rankin)                                       MPEC 2021-UA9
    PK21R060  2021 10 31.8654  2.552200  0.593271  220.7207  176.1164   34.9286  20211111  14.5  4.0  P/2021 R6 (Groeller)                                     MPEC 2021-U31
    CK21R070  2021 04 15.0837  5.642063  0.996548  140.0499  170.1395  158.8587  20211111  10.5  4.0  C/2021 R7 (PANSTARRS)                                    MPEC 2021-TG2
    CK21S010  2022 02 28.6252  6.119289  1.000483  148.1600  299.8715   52.0910  20211111   7.0  4.0  C/2021 S1 (ATLAS)                                        MPEC 2021-UA9
    CK21S030  2024 02 18.3675  1.325100  0.997215    6.9440  215.6958   58.5767  20211111   5.5  4.0  C/2021 S3 (PANSTARRS)                                    MPEC 2021-UA9
    CK21S040  2023 12 31.1964  6.695516  0.958029   72.6816    5.4847   17.4678  20211111   6.5  4.0  C/2021 S4 (Tsuchinshan)                                  MPEC 2021-UA9
    CK21T010  2021 10 14.0598  3.057795  0.997045   51.4919   56.8078  140.3469  20211111  12.5  4.0  C/2021 T1 (Lemmon)                                       MPEC 2021-UA9
    CK21T020  2022 06  4.6241  1.262636  1.030603  261.9813  223.0055  118.0938  20211111  12.0  4.0  C/2021 T2 (Fuls)                                         MPEC 2021-U31
    CK21T040  2023 07 31.5820  1.482496  0.999847  329.7746  257.8002  160.7583  20211111   7.5  4.0  C/2021 T4 (Lemmon)                                       MPEC 2021-UI7
    PK21U010  2021 09 30.9366  2.445252  0.713006  145.0317  246.7902   30.5632  20211111  14.5  4.0  P/2021 U1 (Wierzchos)                                    MPEC 2021-UA9
    PK21U030  2021 10 25.4364  1.888450  0.553321  335.4837   75.0997   70.0586  20211111  15.5  4.0  P/2021 U3 (Attard-Maury)                                 MPEC 2021-V21
    CK21U040  2021 12 21.8407  1.787947  0.962590  237.2391  241.8127  152.8819  20211111  17.0  4.0  C/2021 U4 (Leonard)                                      MPEC 2021-V22
    CK21U050  2022 01 26.0192  2.367460  0.993847  321.1854  182.8370   39.0377  20211111  13.0  4.0  C/2021 U5 (Catalina)                                     MPEC 2021-VJ9
    CK21V010  2022 04 30.3686  3.013399  0.995473  195.1064  207.6544   71.4387  20211111  13.0  4.0  C/2021 V1 (Rankin)                                       MPEC 2021-VG7
    PK21V020  2023 01 21.6148  3.495797  0.613096  259.8597  232.2931   12.6963  20211111  10.0  4.0  P/2021 V2 (Fuls)                                         MPEC 2021-VG9
    PK21V030  2022 08 18.3078  3.400426  0.253984  206.6878  245.8684    3.6898  20211111  13.0  4.0  P/2021 V3 (PANSTARRS)                                    MPEC 2021-VH3
0001P         1986 02 10.4023  0.603339  0.966243  111.8013   58.8700  162.2365  20211111   4.0  6.0  1P/Halley                                                 98, 1083
0002P         2020 06 27.4129  0.333784  0.849525  186.6524  334.5132   11.7970  20211111  11.5  6.0  2P/Encke                                                 MPEC 2021-TD0
0004P         2021 09  8.8358  1.618868  0.576618  206.9995  192.9312    8.0083  20211111   8.0  6.0  4P/Faye                                                  MPEC 2021-UA9
0006P         2021 09 17.7728  1.354596  0.612799  178.0966  138.9354   19.5123  20211111   7.5 16.0  6P/d'Arrest                                              MPEC 2021-UA9
0007P         2021 05 27.1067  1.234106  0.638515  172.5939   93.3671   22.3621  20211111  10.0  6.0  7P/Pons-Winnecke                                         MPEC 2021-UA9
0008P         2021 08 27.7362  1.026002  0.820242  207.4879  270.2029   54.9108  20211111   8.0  8.0  8P/Tuttle                                                MPEC 2021-UA9
0009P         2022 03  4.9455  1.544231  0.509189  179.3465   68.7153   10.4698  20211111  12.5  4.0  9P/Tempel                                                MPEC 2021-F20
0010P         2021 03 24.2532  1.412511  0.538511  195.4970  117.8086   12.0394  20211111   5.0 10.0  10P/Tempel                                               MPEC 2021-UA9
0011P         2020 11 26.2895  1.388504  0.577150  167.9586  238.9011   14.4212  20211111  17.0  4.0  11P/Tempel-Swift-LINEAR                                  MPEC 2021-UA9
0012P         2024 04 20.6888  0.781813  0.954411  198.9921  255.7826   74.1420  20211111   5.0  6.0  12P/Pons-Brooks                                           27,  604
0013P         2024 07  1.2914  1.175007  0.929789   64.4253   85.9227   44.6201  20211111   5.0  6.0  13P/Olbers                                                27,  604
0014P         2017 12  3.1509  2.737854  0.357081  159.0314  202.0484   27.9171  20211111   5.5 12.0  14P/Wolf                                                 MPEC 2021-F20
0015P         2021 07 13.4759  0.992025  0.717039  347.8285   13.7127    6.7977  20211111  12.0  4.0  15P/Finlay                                               MPEC 2021-UA9
0016P         2021 04 18.2811  1.878255  0.486310  245.1945  138.8645    3.0116  20211111   7.5 10.0  16P/Brooks                                               MPEC 2021-S45
0017P         2021 02 19.8586  2.080907  0.427637   24.4852  326.6204   19.0321  20211111  10.0  6.0  17P/Holmes                                               MPEC 2021-UA9
0019P         2022 02  1.8213  1.306296  0.637680  351.9126   74.2478   29.3043  20211111   4.5 10.0  19P/Borrelly                                             MPEC 2021-UA9
0021P         2018 09 10.9366  1.009948  0.711081  172.8639  195.3464   32.0443  20211111  11.4  4.0  21P/Giacobini-Zinner                                     MPEC 2021-F20
0022P         2022 03 18.1221  1.552438  0.548771  163.0142  120.8353    4.7420  20211111   3.0 10.4  22P/Kopff                                                MPEC 2021-S45
0023P         1989 08  4.7722  0.482846  0.971511  128.8382  312.3775   19.1439  20211111  10.0  6.0  23P/Brorsen-Metcalf                                      MPC 14747
0024P         2017 11 12.1286  1.183188  0.708103   58.3038   78.5390   11.5252  20211111   6.5 14.0  24P/Schaumasse                                           MPC110085
0026P         2023 12 25.6500  1.084323  0.640297    2.1731  211.5393   22.4326  20211111  12.0 16.0  26P/Grigg-Skjellerup                                     MPC 94674
0027P         2011 07 23.1053  0.749481  0.918394  195.9242  250.6170   29.2363  20211111  12.0  8.0  27P/Crommelin                                            MPC 78188
0028P         2021 03 11.8794  1.578417  0.773737  347.4153  346.3316   14.3120  20211111   8.5  6.0  28P/Neujmin                                              MPEC 2021-UA9
0029P         2019 04  1.6521  5.770434  0.044761   49.5827  312.3786    9.3666  20211111   4.0  4.0  29P/Schwassmann-Wachmann                                 MPEC 2021-UA9
0030P         2024 08 14.6093  1.767713  0.522640    9.6132  118.1802    8.1880  20211111   9.5  6.0  30P/Reinmuth                                             MPC110085
0031P         2019 07  4.3834  3.423679  0.192133   18.0794  114.1093    4.5474  20211111  13.1  4.0  31P/Schwassmann-Wachmann                                 MPEC 2021-F20
0032P         2024 04 21.0022  1.988195  0.559470   54.6068   55.7631    9.8704  20211111   6.5  8.0  32P/Comas Sola                                           MPC 92276
0033P         2024 11 12.2714  2.240540  0.451647   20.5232   66.3170   22.2990  20211111  10.0 12.0  33P/Daniel                                               MPEC 2013-O31
0035P         2092 01  8.443   0.74297   0.97398    28.962   356.694    65.213   20211111   9.0  4.0  35P/Herschel-Rigollet                                     15,  452
